{"type": "FeatureCollection", "features": [ {"type": "Feature", "properties": {"norad_id": 66569, "name": "STARLINK-35835", "group": "last-30-days", "lat": 4.333282545849647, "lon": 96.53668278976424, "alt_km": 413.1070415843178, "timestamp": "2025-12-17T17:50:17.972451+00:00", "meta": {"OBJECT_NAME": "STARLINK-35835", "OBJECT_ID": "2025-268N", "EPOCH": "2025-12-15T17:53:30.134688", "MEAN_MOTION": 15.50581218, "ECCENTRICITY": 0.00013774, "INCLINATION": 43.0003, "RA_OF_ASC_NODE": 103.5637, "ARG_OF_PERICENTER": 270.128, "MEAN_ANOMALY": 89.9422, "EPHEMERIS_TYPE": 0, "CLASSIFICATION_TYPE": "U", "NORAD_CAT_ID": 66569, "ELEMENT_SET_NO": 999, "REV_AT_EPOCH": 509, "BSTAR": 0.0014471406, "MEAN_MOTION_DOT": 0.00085494, "MEAN_MOTION_DDOT": 0}, "tle": {"line1": "1 66569U 25268N   25349.74548767  .00085494  00000+0  14471-2 0  9994", "line2": "2 66569  43.0003 103.5637 0001377 270.1280  89.9422 15.50581218  5091"}}, "geometry": {"type": "Point", "coordinates": [96.53668278976424, 4.333282545849647]}}, {"type": "Feature", "properties": {"norad_id": 66570, "name": "STARLINK-35834", "group": "last-30-days", "lat": 4.770361585721516, "lon": 97.01133126139909, "alt_km": 414.3297313471976, "timestamp": "2025-12-17T17:50:17.972462+00:00", "meta": {"OBJECT_NAME": "STARLINK-35834", "OBJECT_ID": "2025-268P", "EPOCH": "2025-12-17T00:00:02.999808", "MEAN_MOTION": 15.50542009, "ECCENTRICITY": 0.0001628, "INCLINATION": 43.0008, "RA_OF_ASC_NODE": 96.2217, "ARG_OF_PERICENTER": 261.3551, "MEAN_ANOMALY": 272.012, "EPHEMERIS_TYPE": 0, "CLASSIFICATION_TYPE": "U", "NORAD_CAT_ID": 66570, "ELEMENT_SET_NO": 999, "REV_AT_EPOCH": 535, "BSTAR": 0.00057210059, "MEAN_MOTION_DOT": 0.00033319, "MEAN_MOTION_DDOT": 0}, "tle": {"line1": "1 66570U 25268P   25351.00003472  .00033319  00000+0  57210-3 0  9995", "line2": "2 66570  43.0008  96.2217 0001628 261.3551 272.0120 15.50542009  5356"}}, "geometry": {"type": "Point", "coordinates": [97.01133126139909, 4.770361585721516]}}, {"type": "Feature", "properties": {"norad_id": 66571, "name": "STARLINK-35836", "group": "last-30-days", "lat": 6.798478323413162, "lon": 99.2135638214623, "alt_km": 412.36258368947165, "timestamp": "2025-12-17T17:50:17.972476+00:00", "meta": {"OBJECT_NAME": "STARLINK-35836", "OBJECT_ID": "2025-268Q", "EPOCH": "2025-12-15T16:19:45.764256", "MEAN_MOTION": 15.50585283, "ECCENTRICITY": 0.00014873, "INCLINATION": 42.9954, "RA_OF_ASC_NODE": 103.9347, "ARG_OF_PERICENTER": 312.1791, "MEAN_ANOMALY": 47.8943, "EPHEMERIS_TYPE": 0, "CLASSIFICATION_TYPE": "U", "NORAD_CAT_ID": 66571, "ELEMENT_SET_NO": 999, "REV_AT_EPOCH": 508, "BSTAR": 0.0011259195, "MEAN_MOTION_DOT": 0.00066287, "MEAN_MOTION_DDOT": 0}, "tle": {"line1": "1 66571U 25268Q   25349.68039079  .00066287  00000+0  11259-2 0  9991", "line2": "2 66571  42.9954 103.9347 0001487 312.1791  47.8943 15.50585283  5081"}}, "geometry": {"type": "Point", "coordinates": [99.2135638214623, 6.798478323413162]}}, {"type": "Feature", "properties": {"norad_id": 66572, "name": "STARLINK-35870", "group": "last-30-days", "lat": 9.695356865028897, "lon": 102.42268984631514, "alt_km": 412.32556902024226, "timestamp": "2025-12-17T17:50:17.972487+00:00", "meta": {"OBJECT_NAME": "STARLINK-35870", "OBJECT_ID": "2025-268R", "EPOCH": "2025-12-17T06:57:42.835104", "MEAN_MOTION": 15.51448552, "ECCENTRICITY": 0.00028728, "INCLINATION": 43.0014, "RA_OF_ASC_NODE": 94.5137, "ARG_OF_PERICENTER": 179.5704, "MEAN_ANOMALY": 180.5159, "EPHEMERIS_TYPE": 0, "CLASSIFICATION_TYPE": "U", "NORAD_CAT_ID": 66572, "ELEMENT_SET_NO": 999, "REV_AT_EPOCH": 533, "BSTAR": 0.0030084014, "MEAN_MOTION_DOT": 0.00186105, "MEAN_MOTION_DDOT": 0}, "tle": {"line1": "1 66572U 25268R   25351.29007911  .00186105  00000+0  30084-2 0  9991", "line2": "2 66572  43.0014  94.5137 0002872 179.5704 180.5159 15.51448552  5331"}}, "geometry": {"type": "Point", "coordinates": [102.42268984631514, 9.695356865028897]}}, {"type": "Feature", "properties": {"norad_id": 66573, "name": "STARLINK-35650", "group": "last-30-days", "lat": 12.114208793850615, "lon": 105.16358969755498, "alt_km": 409.36168584901134, "timestamp": "2025-12-17T17:50:17.972497+00:00", "meta": {"OBJECT_NAME": "STARLINK-35650", "OBJECT_ID": "2025-268S", "EPOCH": "2025-12-16T15:29:39.161760", "MEAN_MOTION": 15.51253867, "ECCENTRICITY": 0.00025406, "INCLINATION": 42.9964, "RA_OF_ASC_NODE": 98.2753, "ARG_OF_PERICENTER": 312.0819, "MEAN_ANOMALY": 47.9825, "EPHEMERIS_TYPE": 0, "CLASSIFICATION_TYPE": "U", "NORAD_CAT_ID": 66573, "ELEMENT_SET_NO": 999, "REV_AT_EPOCH": 523, "BSTAR": 0.002315295, "MEAN_MOTION_DOT": 0.00141337, "MEAN_MOTION_DDOT": 0}, "tle": {"line1": "1 66573U 25268S   25350.64559215  .00141337  00000+0  23153-2 0  9996", "line2": "2 66573  42.9964  98.2753 0002540 312.0819  47.9825 15.51253867  5230"}}, "geometry": {"type": "Point", "coordinates": [105.16358969755498, 12.114208793850615]}}, {"type": "Feature", "properties": {"norad_id": 66574, "name": "STARLINK-35812", "group": "last-30-days", "lat": 10.528477348181564, "lon": 103.35511327482723, "alt_km": 411.7884641395967, "timestamp": "2025-12-17T17:50:17.972508+00:00", "meta": {"OBJECT_NAME": "STARLINK-35812", "OBJECT_ID": "2025-268T", "EPOCH": "2025-12-16T15:29:38.663232", "MEAN_MOTION": 15.50718771, "ECCENTRICITY": 0.00015507, "INCLINATION": 43.0004, "RA_OF_ASC_NODE": 98.2749, "ARG_OF_PERICENTER": 319.105, "MEAN_ANOMALY": 40.9693, "EPHEMERIS_TYPE": 0, "CLASSIFICATION_TYPE": "U", "NORAD_CAT_ID": 66574, "ELEMENT_SET_NO": 999, "REV_AT_EPOCH": 523, "BSTAR": 0.001231325, "MEAN_MOTION_DOT": 0.00072934, "MEAN_MOTION_DDOT": 0}, "tle": {"line1": "1 66574U 25268T   25350.64558638  .00072934  00000+0  12313-2 0  9997", "line2": "2 66574  43.0004  98.2749 0001550 319.1050  40.9693 15.50718771  5233"}}, "geometry": {"type": "Point", "coordinates": [103.35511327482723, 10.528477348181564]}}, {"type": "Feature", "properties": {"norad_id": 66575, "name": "STARLINK-35810", "group": "last-30-days", "lat": 11.210597302972957, "lon": 104.12853398384794, "alt_km": 413.48611004413306, "timestamp": "2025-12-17T17:50:17.972518+00:00", "meta": {"OBJECT_NAME": "STARLINK-35810", "OBJECT_ID": "2025-268U", "EPOCH": "2025-12-17T00:00:02.999808", "MEAN_MOTION": 15.50546189, "ECCENTRICITY": 0.0001582, "INCLINATION": 43.0008, "RA_OF_ASC_NODE": 96.1968, "ARG_OF_PERICENTER": 270.7248, "MEAN_ANOMALY": 272.2364, "EPHEMERIS_TYPE": 0, "CLASSIFICATION_TYPE": "U", "NORAD_CAT_ID": 66575, "ELEMENT_SET_NO": 999, "REV_AT_EPOCH": 535, "BSTAR": 0.00017629698, "MEAN_MOTION_DOT": 0.00010002, "MEAN_MOTION_DDOT": 0}, "tle": {"line1": "1 66575U 25268U   25351.00003472  .00010002  00000+0  17630-3 0  9996", "line2": "2 66575  43.0008  96.1968 0001582 270.7248 272.2364 15.50546189  5354"}}, "geometry": {"type": "Point", "coordinates": [104.12853398384794, 11.210597302972957]}}, {"type": "Feature", "properties": {"norad_id": 66576, "name": "STARLINK-35814", "group": "last-30-days", "lat": 14.133139585431612, "lon": 107.51571501614997, "alt_km": 412.3633351667959, "timestamp": "2025-12-17T17:50:17.972529+00:00", "meta": {"OBJECT_NAME": "STARLINK-35814", "OBJECT_ID": "2025-268V", "EPOCH": "2025-12-17T06:56:14.825472", "MEAN_MOTION": 15.52102983, "ECCENTRICITY": 0.00080554, "INCLINATION": 43.0041, "RA_OF_ASC_NODE": 94.5045, "ARG_OF_PERICENTER": 236.9749, "MEAN_ANOMALY": 123.0338, "EPHEMERIS_TYPE": 0, "CLASSIFICATION_TYPE": "U", "NORAD_CAT_ID": 66576, "ELEMENT_SET_NO": 999, "REV_AT_EPOCH": 533, "BSTAR": 0.0013110247, "MEAN_MOTION_DOT": 0.00081822, "MEAN_MOTION_DDOT": 0}, "tle": {"line1": "1 66576U 25268V   25351.28906048  .00081822  00000+0  13110-2 0  9994", "line2": "2 66576  43.0041  94.5045 0008055 236.9749 123.0338 15.52102983  5336"}}, "geometry": {"type": "Point", "coordinates": [107.51571501614997, 14.133139585431612]}}, {"type": "Feature", "properties": {"norad_id": 66577, "name": "STARLINK-35815", "group": "last-30-days", "lat": 13.789296993016658, "lon": 107.11094934666262, "alt_km": 412.63630139220913, "timestamp": "2025-12-17T17:50:17.972539+00:00", "meta": {"OBJECT_NAME": "STARLINK-35815", "OBJECT_ID": "2025-268W", "EPOCH": "2025-12-17T06:55:45.230016", "MEAN_MOTION": 15.50614762, "ECCENTRICITY": 5.558e-05, "INCLINATION": 42.9969, "RA_OF_ASC_NODE": 94.4986, "ARG_OF_PERICENTER": 117.6284, "MEAN_ANOMALY": 242.4632, "EPHEMERIS_TYPE": 0, "CLASSIFICATION_TYPE": "U", "NORAD_CAT_ID": 66577, "ELEMENT_SET_NO": 999, "REV_AT_EPOCH": 533, "BSTAR": 0.0010581413, "MEAN_MOTION_DOT": 0.00062309, "MEAN_MOTION_DDOT": 0}, "tle": {"line1": "1 66577U 25268W   25351.28871794  .00062309  00000+0  10581-2 0  9992", "line2": "2 66577  42.9969  94.4986 0000555 117.6284 242.4632 15.50614762  5337"}}, "geometry": {"type": "Point", "coordinates": [107.11094934666262, 13.789296993016658]}}, {"type": "Feature", "properties": {"norad_id": 66578, "name": "STARLINK-35743", "group": "last-30-days", "lat": 15.138689150144849, "lon": 108.71469401208574, "alt_km": 412.20696338550533, "timestamp": "2025-12-17T17:50:17.972551+00:00", "meta": {"OBJECT_NAME": "STARLINK-35743", "OBJECT_ID": "2025-268X", "EPOCH": "2025-12-17T06:55:14.457792", "MEAN_MOTION": 15.50648449, "ECCENTRICITY": 3.513e-05, "INCLINATION": 42.9978, "RA_OF_ASC_NODE": 94.4975, "ARG_OF_PERICENTER": 293.5476, "MEAN_ANOMALY": 66.5347, "EPHEMERIS_TYPE": 0, "CLASSIFICATION_TYPE": "U", "NORAD_CAT_ID": 66578, "ELEMENT_SET_NO": 999, "REV_AT_EPOCH": 533, "BSTAR": 0.0013255092, "MEAN_MOTION_DOT": 0.00078396, "MEAN_MOTION_DDOT": 0}, "tle": {"line1": "1 66578U 25268X   25351.28836178  .00078396  00000+0  13255-2 0  9994", "line2": "2 66578  42.9978  94.4975 0000351 293.5476  66.5347 15.50648449  5334"}}, "geometry": {"type": "Point", "coordinates": [108.71469401208574, 15.138689150144849]}}]}